[{"OBJECT_NAME":"STARLINK-31943","OBJECT_ID":"2024-098W","EPOCH":"2026-03-08T23:51:59.554656","MEAN_MOTION":15.28302612,"ECCENTRICITY":0.00029924,"INCLINATION":43.002,"RA_OF_ASC_NODE":285.916,"ARG_OF_PERICENTER":274.902,"MEAN_ANOMALY":85.149,"EPHEMERIS_TYPE":0,"CLASSIFICATION_TYPE":"U","NORAD_CAT_ID":59878,"ELEMENT_SET_NO":999,"REV_AT_EPOCH":10104,"BSTAR":0.00086463907,"MEAN_MOTION_DOT":0.00024142,"MEAN_MOTION_DDOT":0},{"OBJECT_NAME":"COSMOS 970 DEB","OBJECT_ID":"1977-121BY","EPOCH":"2026-03-08T00:28:08.036544","MEAN_MOTION":15.38602545,"ECCENTRICITY":0.01254623,"INCLINATION":65.7647,"RA_OF_ASC_NODE":81.4591,"ARG_OF_PERICENTER":84.8291,"MEAN_ANOMALY":276.7158,"EPHEMERIS_TYPE":0,"CLASSIFICATION_TYPE":"U","NORAD_CAT_ID":20327,"ELEMENT_SET_NO":999,"REV_AT_EPOCH":74479,"BSTAR":0.0016623992,"MEAN_MOTION_DOT":0.00084425,"MEAN_MOTION_DDOT":0}]
